{"fetched_at":"2026-03-29T16:36:15Z","count":15609,"tles":[{"name":"STARLINK-31668","line1":"1 59580U 24076S   26087.81921369  .00018098  00000+0  66492-3 0  9993","line2":"2 59580  42.9998 260.5062 0001471 266.8048  93.2636 15.27613294109434","category":"Starlink"}]}