{
  "norad_id": 59580,
  "name": "STARLINK-31668",
  "history": [
    {
      "epoch": "2026-03-28T19:39:40.062816",
      "apogee_km": 483.95880666858466,
      "perigee_km": 481.9400006051792,
      "latitude_deg": -7.682536320631911,
      "longitude_deg": -143.35548576014116,
      "semi_major_axis_km": 6861.086403636881,
      "eccentricity": 0.00014712,
      "inclination_deg": 42.9998,
      "raan_deg": 260.5062,
      "arg_perigee_deg": 266.8048,
      "mean_anomaly_deg": 93.2636,
      "mean_motion_rev_day": 15.27613294
    }
  ]
}